start=new Date('2021-12-10T00:00:00.000Z').valueOf();
sats=[{"EPHEMERIS_TYPE":"0","PERIOD":"95.592","EPOCH":"2021-12-09T19:10:32.949408","TLE_LINE1":"1 47737U 21017R   21343.79899247  .00000796  00000-0  72365-4 0  9996","SITE":"AFETR","TLE_LINE2":"2 47737  53.0550 258.8261 0002348  57.8171 302.3046 15.06396023 45075","CENTER_NAME":"EARTH","REV_AT_EPOCH":"4507","DECAY_DATE":null,"ARG_OF_PERICENTER":"57.8171","ECCENTRICITY":"0.00023480","MEAN_MOTION_DOT":"0.00000796","TIME_SYSTEM":"UTC","OBJECT_ID":"2021-017R","LAUNCH_DATE":"2021-03-04","BSTAR":"0.00007236500000","CLASSIFICATION_TYPE":"U","GP_ID":"191398758","ELEMENT_SET_NO":"999","SEMIMAJOR_AXIS":"6925.361","MEAN_ELEMENT_THEORY":"SGP4","REF_FRAME":"TEME","OBJECT_NAME":"STARLINK-2148","INCLINATION":"53.0550","APOAPSIS":"548.852","PERIAPSIS":"545.600","MEAN_ANOMALY":"302.3046","OBJECT_TYPE":"PAYLOAD","MEAN_MOTION":"15.06396023","RCS_SIZE":"LARGE","COUNTRY_CODE":"US","MEAN_MOTION_DDOT":"0.0000000000000","RA_OF_ASC_NODE":"258.8261","NORAD_CAT_ID":"47737","FILE":"3236488"},{"TIME_SYSTEM":"UTC","OBJECT_ID":"2021-017S","LAUNCH_DATE":"2021-03-04","MEAN_MOTION_DOT":"-0.00000419","BSTAR":"-0.00000904650000","CLASSIFICATION_TYPE":"U","GP_ID":"191399010","ELEMENT_SET_NO":"999","EPOCH":"2021-12-09T15:58:49.323360","PERIOD":"95.592","EPHEMERIS_TYPE":"0","ARG_OF_PERICENTER":"46.4490","ECCENTRICITY":"0.00065180","SITE":"AFETR","TLE_LINE1":"1 47738U 21017S   21343.66584865 -.00000419  00000-0 -90465-5 0  9996","REV_AT_EPOCH":"4414","TLE_LINE2":"2 47738  53.0549 324.4436 0006518  46.4490 313.7039 15.06395690 44143","CENTER_NAME":"EARTH","DECAY_DATE":null,"COUNTRY_CODE":"US","RCS_SIZE":"LARGE","MEAN_MOTION":"15.06395690","NORAD_CAT_ID":"47738","FILE":"3236488","MEAN_MOTION_DDOT":"0.0000000000000","RA_OF_ASC_NODE":"324.4436","REF_FRAME":"TEME","SEMIMAJOR_AXIS":"6925.362","MEAN_ELEMENT_THEORY":"SGP4","OBJECT_TYPE":"PAYLOAD","MEAN_ANOMALY":"313.7039","INCLINATION":"53.0549","OBJECT_NAME":"STARLINK-2149","APOAPSIS":"551.741","PERIAPSIS":"542.713"},{"EPOCH":"2021-12-09T17:07:09.213312","PERIOD":"95.592","EPHEMERIS_TYPE":"0","ARG_OF_PERICENTER":"64.9186","ECCENTRICITY":"0.00016330","TLE_LINE1":"1 47739U 21017T   21343.71330108 -.00000746  00000-0 -31198-4 0  9992","SITE":"AFETR","CENTER_NAME":"EARTH","TLE_LINE2":"2 47739  53.0557 349.2260 0001633  64.9186 295.1972 15.06397144 43800","REV_AT_EPOCH":"4380","DECAY_DATE":null,"TIME_SYSTEM":"UTC","LAUNCH_DATE":"2021-03-04","OBJECT_ID":"2021-017T","MEAN_MOTION_DOT":"-0.00000746","BSTAR":"-0.00003119800000","CLASSIFICATION_TYPE":"U","GP_ID":"191399760","ELEMENT_SET_NO":"999","REF_FRAME":"TEME","SEMIMAJOR_AXIS":"6925.357","MEAN_ELEMENT_THEORY":"SGP4","OBJECT_TYPE":"PAYLOAD","MEAN_ANOMALY":"295.1972","INCLINATION":"53.0557","OBJECT_NAME":"STARLINK-2150","APOAPSIS":"548.353","PERIAPSIS":"546.091","COUNTRY_CODE":"US","MEAN_MOTION":"15.06397144","RCS_SIZE":"LARGE","NORAD_CAT_ID":"47739","FILE":"3236488","MEAN_MOTION_DDOT":"0.0000000000000","RA_OF_ASC_NODE":"349.2260"},{"REF_FRAME":"TEME","MEAN_ELEMENT_THEORY":"SGP4","SEMIMAJOR_AXIS":"6925.355","MEAN_ANOMALY":"296.6314","OBJECT_TYPE":"PAYLOAD","APOAPSIS":"548.519","PERIAPSIS":"545.921","OBJECT_NAME":"STARLINK-2152","INCLINATION":"53.0549","COUNTRY_CODE":"US","MEAN_MOTION":"15.06397969","RCS_SIZE":"LARGE","NORAD_CAT_ID":"47740","FILE":"3236488","MEAN_MOTION_DDOT":"0.0000000000000","RA_OF_ASC_NODE":"334.3184","EPOCH":"2021-12-09T16:39:57.321216","PERIOD":"95.592","EPHEMERIS_TYPE":"0","ECCENTRICITY":"0.00018760","ARG_OF_PERICENTER":"63.4867","DECAY_DATE":null,"SITE":"AFETR","TLE_LINE1":"1 47740U 21017U   21343.69441344 -.00000667  00000-0 -25864-4 0  9991","TLE_LINE2":"2 47740  53.0549 334.3184 0001876  63.4867 296.6314 15.06397969 44006","CENTER_NAME":"EARTH","REV_AT_EPOCH":"4400","OBJECT_ID":"2021-017U","LAUNCH_DATE":"2021-03-04","TIME_SYSTEM":"UTC","MEAN_MOTION_DOT":"-0.00000667","GP_ID":"191398508","ELEMENT_SET_NO":"999","BSTAR":"-0.00002586400000","CLASSIFICATION_TYPE":"U"},{"DECAY_DATE":null,"CENTER_NAME":"EARTH","TLE_LINE2":"2 47741  53.0549 334.2509 0001982  60.5736 299.5451 15.06391779 43969","REV_AT_EPOCH":"4396","SITE":"AFETR","TLE_LINE1":"1 47741U 21017V   21343.70916423  .00001211  00000-0  10022-3 0  9992","ECCENTRICITY":"0.00019820","ARG_OF_PERICENTER":"60.5736","EPHEMERIS_TYPE":"0","EPOCH":"2021-12-09T17:01:11.789472","PERIOD":"95.593","ELEMENT_SET_NO":"999","GP_ID":"191398259","CLASSIFICATION_TYPE":"U","BSTAR":"0.00010022000000","MEAN_MOTION_DOT":"0.00001211","LAUNCH_DATE":"2021-03-04","OBJECT_ID":"2021-017V","TIME_SYSTEM":"UTC","APOAPSIS":"548.611","PERIAPSIS":"545.866","INCLINATION":"53.0549","OBJECT_NAME":"STARLINK-2154","OBJECT_TYPE":"PAYLOAD","MEAN_ANOMALY":"299.5451","MEAN_ELEMENT_THEORY":"SGP4","SEMIMAJOR_AXIS":"6925.374","REF_FRAME":"TEME","RA_OF_ASC_NODE":"334.2509","MEAN_MOTION_DDOT":"0.0000000000000","NORAD_CAT_ID":"47741","FILE":"3236488","MEAN_MOTION":"15.06391779","RCS_SIZE":"LARGE","COUNTRY_CODE":"US"},{"LAUNCH_DATE":"2021-03-04","OBJECT_ID":"2021-017W","TIME_SYSTEM":"UTC","MEAN_MOTION_DOT":"-0.00000931","GP_ID":"191399510","ELEMENT_SET_NO":"999","BSTAR":"-0.00004358100000","CLASSIFICATION_TYPE":"U","PERIOD":"95.593","EPOCH":"2021-12-09T15:42:53.392896","EPHEMERIS_TYPE":"0","ECCENTRICITY":"0.00020600","ARG_OF_PERICENTER":"62.2594","DECAY_DATE":null,"SITE":"AFETR","TLE_LINE1":"1 47742U 21017W   21343.65478464 -.00000931  00000-0 -43581-4 0  9992","TLE_LINE2":"2 47742  53.0563 324.4978 0002060  62.2594 297.8604 15.06393419 44141","REV_AT_EPOCH":"4414","CENTER_NAME":"EARTH","COUNTRY_CODE":"US","RCS_SIZE":"LARGE","MEAN_MOTION":"15.06393419","NORAD_CAT_ID":"47742","FILE":"3236488","MEAN_MOTION_DDOT":"0.0000000000000","RA_OF_ASC_NODE":"324.4978","REF_FRAME":"TEME","MEAN_ELEMENT_THEORY":"SGP4","SEMIMAJOR_AXIS":"6925.369","OBJECT_TYPE":"PAYLOAD","MEAN_ANOMALY":"297.8604","PERIAPSIS":"545.807","APOAPSIS":"548.660","OBJECT_NAME":"STARLINK-2156","INCLINATION":"53.0563"},{"COUNTRY_CODE":"US","RCS_SIZE":"LARGE","MEAN_MOTION":"15.06398313","NORAD_CAT_ID":"47743","FILE":"3236488","MEAN_MOTION_DDOT":"0.0000000000000","RA_OF_ASC_NODE":"324.3605","REF_FRAME":"TEME","MEAN_ELEMENT_THEORY":"SGP4","SEMIMAJOR_AXIS":"6925.354","OBJECT_TYPE":"PAYLOAD","MEAN_ANOMALY":"301.6265","APOAPSIS":"548.539","PERIAPSIS":"545.899","OBJECT_NAME":"STARLINK-2157","INCLINATION":"53.0565","OBJECT_ID":"2021-017X","LAUNCH_DATE":"2021-03-04","TIME_SYSTEM":"UTC","MEAN_MOTION_DOT":"-0.00000510","GP_ID":"191399261","ELEMENT_SET_NO":"999","BSTAR":"-0.00001532300000","CLASSIFICATION_TYPE":"U","EPOCH":"2021-12-09T16:20:02.842080","PERIOD":"95.592","EPHEMERIS_TYPE":"0","ECCENTRICITY":"0.00019060","ARG_OF_PERICENTER":"58.4910","DECAY_DATE":null,"SITE":"AFETR","TLE_LINE1":"1 47743U 21017X   21343.68058845 -.00000510  00000-0 -15323-4 0  9999","CENTER_NAME":"EARTH","TLE_LINE2":"2 47743  53.0565 324.3605 0001906  58.4910 301.6265 15.06398313 44120","REV_AT_EPOCH":"4412"},{"ECCENTRICITY":"0.00018650","ARG_OF_PERICENTER":"61.9225","DECAY_DATE":null,"SITE":"AFETR","TLE_LINE1":"1 47744U 21017Y   21343.65846864 -.00000533  00000-0 -16863-4 0  9998","CENTER_NAME":"EARTH","TLE_LINE2":"2 47744  53.0558 324.4767 0001865  61.9225 298.1952 15.06402237 44141","REV_AT_EPOCH":"4414","EPOCH":"2021-12-09T15:48:11.690496","PERIOD":"95.592","EPHEMERIS_TYPE":"0","GP_ID":"191398009","ELEMENT_SET_NO":"999","BSTAR":"-0.00001686300000","CLASSIFICATION_TYPE":"U","OBJECT_ID":"2021-017Y","LAUNCH_DATE":"2021-03-04","TIME_SYSTEM":"UTC","MEAN_MOTION_DOT":"-0.00000533","MEAN_ANOMALY":"298.1952","OBJECT_TYPE":"PAYLOAD","APOAPSIS":"548.498","PERIAPSIS":"545.915","INCLINATION":"53.0558","OBJECT_NAME":"STARLINK-2158","REF_FRAME":"TEME","MEAN_ELEMENT_THEORY":"SGP4","SEMIMAJOR_AXIS":"6925.342","FILE":"3236488","NORAD_CAT_ID":"47744","MEAN_MOTION_DDOT":"0.0000000000000","RA_OF_ASC_NODE":"324.4767","COUNTRY_CODE":"US","MEAN_MOTION":"15.06402237","RCS_SIZE":"LARGE"},{"RA_OF_ASC_NODE":"333.7590","MEAN_MOTION_DDOT":"0.0000000000000","NORAD_CAT_ID":"47745","FILE":"3236488","RCS_SIZE":"LARGE","MEAN_MOTION":"15.06395842","COUNTRY_CODE":"US","PERIAPSIS":"545.931","APOAPSIS":"548.522","OBJECT_NAME":"STARLINK-2159","INCLINATION":"53.0555","MEAN_ANOMALY":"304.7036","OBJECT_TYPE":"PAYLOAD","MEAN_ELEMENT_THEORY":"SGP4","SEMIMAJOR_AXIS":"6925.361","REF_FRAME":"TEME","ELEMENT_SET_NO":"999","GP_ID":"191398759","CLASSIFICATION_TYPE":"U","BSTAR":"-0.00002850700000","MEAN_MOTION_DOT":"-0.00000706","OBJECT_ID":"2021-017Z","LAUNCH_DATE":"2021-03-04","TIME_SYSTEM":"UTC","DECAY_DATE":null,"REV_AT_EPOCH":"4397","TLE_LINE2":"2 47745  53.0555 333.7590 0001871  55.4129 304.7036 15.06395842 43974","CENTER_NAME":"EARTH","SITE":"AFETR","TLE_LINE1":"1 47745U 21017Z   21343.81973532 -.00000706  00000-0 -28507-4 0  9990","ECCENTRICITY":"0.00018710","ARG_OF_PERICENTER":"55.4129","EPHEMERIS_TYPE":"0","PERIOD":"95.592","EPOCH":"2021-12-09T19:40:25.131648"},{"MEAN_ELEMENT_THEORY":"SGP4","SEMIMAJOR_AXIS":"6925.370","REF_FRAME":"TEME","APOAPSIS":"548.488","PERIAPSIS":"545.982","OBJECT_NAME":"STARLINK-2160","INCLINATION":"53.0559","MEAN_ANOMALY":"306.2263","OBJECT_TYPE":"PAYLOAD","MEAN_MOTION":"15.06393021","RCS_SIZE":"LARGE","COUNTRY_CODE":"US","MEAN_MOTION_DDOT":"0.0000000000000","RA_OF_ASC_NODE":"334.3629","NORAD_CAT_ID":"47746","FILE":"3236488","EPHEMERIS_TYPE":"0","EPOCH":"2021-12-09T16:18:43.425792","PERIOD":"95.593","DECAY_DATE":null,"SITE":"AFETR","TLE_LINE1":"1 47746U 21017AA  21343.67966928 -.00000780  00000-0 -33444-4 0  9994","CENTER_NAME":"EARTH","TLE_LINE2":"2 47746  53.0559 334.3629 0001809  53.8893 306.2263 15.06393021 43943","REV_AT_EPOCH":"4394","ECCENTRICITY":"0.00018090","ARG_OF_PERICENTER":"53.8893","MEAN_MOTION_DOT":"-0.00000780","LAUNCH_DATE":"2021-03-04","OBJECT_ID":"2021-017AA","TIME_SYSTEM":"UTC","GP_ID":"191399011","ELEMENT_SET_NO":"999","BSTAR":"-0.00003344400000","CLASSIFICATION_TYPE":"U"}];
